[{"CCSDS_OMM_VERS":"2.0","COMMENT":"GENERATED VIA SPACE-TRACK.ORG API","CREATION_DATE":"2004-08-15T23:35:47","ORIGINATOR":"18 SPCS","OBJECT_NAME":"POLYOT 2","OBJECT_ID":"1964-019A","CENTER_NAME":"EARTH","REF_FRAME":"TEME","TIME_SYSTEM":"UTC","MEAN_ELEMENT_THEORY":"SGP4","EPOCH":"1966-06-07T18:26:05.445311","MEAN_MOTION":"16.38483361","ECCENTRICITY":"0.00000000","INCLINATION":"58.0199","RA_OF_ASC_NODE":"169.7284","ARG_OF_PERICENTER":"344.7363","MEAN_ANOMALY":"15.2636","EPHEMERIS_TYPE":"0","CLASSIFICATION_TYPE":"U","NORAD_CAT_ID":"784","ELEMENT_SET_NO":"999","REV_AT_EPOCH":"12376","BSTAR":"0.00000000000000","MEAN_MOTION_DOT":"0.03811070","MEAN_MOTION_DDOT":"0.2381500000000","SEMIMAJOR_AXIS":"6547.981","PERIOD":"87.886","APOAPSIS":"169.846","PERIAPSIS":"169.846","OBJECT_TYPE":"PAYLOAD","RCS_SIZE":null,"COUNTRY_CODE":null,"LAUNCH_DATE":null,"SITE":null,"DECAY_DATE":"1966-06-08","FILE":"33914","GP_ID":"8708185","TLE_LINE0":"0 POLYOT 2","TLE_LINE1":"1 00784U 64019  A 66158.76811858  .03811070 +23815-0 +00000-0 0  9998","TLE_LINE2":"2 00784 058.0199 169.7284 0000000 344.7363 015.2636 16.38483361123765"},{"CCSDS_OMM_VERS":"2.0","COMMENT":"GENERATED VIA SPACE-TRACK.ORG API","CREATION_DATE":"2004-08-15T23:35:47","ORIGINATOR":"18 SPCS","OBJECT_NAME":"OPS 1856","OBJECT_ID":"1966-048B","CENTER_NAME":"EARTH","REF_FRAME":"TEME","TIME_SYSTEM":"UTC","MEAN_ELEMENT_THEORY":"SGP4","EPOCH":"1966-06-07T21:55:29.616672","MEAN_MOTION":"16.31699399","ECCENTRICITY":"0.00619990","INCLINATION":"86.9876","RA_OF_ASC_NODE":"243.5226","ARG_OF_PERICENTER":"114.5426","MEAN_ANOMALY":"246.1280","EPHEMERIS_TYPE":"0","CLASSIFICATION_TYPE":"U","NORAD_CAT_ID":"2194","ELEMENT_SET_NO":"999","REV_AT_EPOCH":"67","BSTAR":"0.00000000000000","MEAN_MOTION_DOT":"0.02290457","MEAN_MOTION_DDOT":"0.0705430000000","SEMIMAJOR_AXIS":"6566.118","PERIOD":"88.251","APOAPSIS":"228.692","PERIAPSIS":"147.273","OBJECT_TYPE":"PAYLOAD","RCS_SIZE":null,"COUNTRY_CODE":null,"LAUNCH_DATE":null,"SITE":null,"DECAY_DATE":"1966-06-09","FILE":"33914","GP_ID":"8719803","TLE_LINE0":"0 OPS 1856","TLE_LINE1":"1 02194U 66048  B 66158.91353723  .02290457 +70543-1 +00000-0 0  9998","TLE_LINE2":"2 02194 086.9876 243.5226 0061999 114.5426 246.1280 16.31699399000675"},{"CCSDS_OMM_VERS":"2.0","COMMENT":"GENERATED VIA SPACE-TRACK.ORG API","CREATION_DATE":"2004-08-15T23:35:47","ORIGINATOR":"18 SPCS","OBJECT_NAME":"SL-3 DEB","OBJECT_ID":"1966-050D","CENTER_NAME":"EARTH","REF_FRAME":"TEME","TIME_SYSTEM":"UTC","MEAN_ELEMENT_THEORY":"SGP4","EPOCH":"1966-06-08T19:41:54.152159","MEAN_MOTION":"16.24692731","ECCENTRICITY":"0.00314130","INCLINATION":"51.8047","RA_OF_ASC_NODE":"70.1525","ARG_OF_PERICENTER":"359.1884","MEAN_ANOMALY":"0.8960","EPHEMERIS_TYPE":"0","CLASSIFICATION_TYPE":"U","NORAD_CAT_ID":"2199","ELEMENT_SET_NO":"999","REV_AT_EPOCH":"6","BSTAR":"0.00000000000000","MEAN_MOTION_DOT":"0.14815783","MEAN_MOTION_DDOT":"2.4989000000000","SEMIMAJOR_AXIS":"6584.982","PERIOD":"88.632","APOAPSIS":"227.532","PERIAPSIS":"186.162","OBJECT_TYPE":"DEBRIS","RCS_SIZE":null,"COUNTRY_CODE":null,"LAUNCH_DATE":null,"SITE":null,"DECAY_DATE":"1966-06-09","FILE":"33914","GP_ID":"8719818","TLE_LINE0":"0 SL-3 DEB","TLE_LINE1":"1 02199U 66050  D 66159.82076565  .14815783 +2498901 +00000-0 0  9993","TLE_LINE2":"2 02199 051.8047 070.1525 0031413 359.1884 000.8960 16.24692731000068"},{"CCSDS_OMM_VERS":"2.0","COMMENT":"GENERATED VIA SPACE-TRACK.ORG API","CREATION_DATE":"2004-08-15T23:35:47","ORIGINATOR":"18 SPCS","OBJECT_NAME":"SL-3 DEB","OBJECT_ID":"1966-050C","CENTER_NAME":"EARTH","REF_FRAME":"TEME","TIME_SYSTEM":"UTC","MEAN_ELEMENT_THEORY":"SGP4","EPOCH":"1966-06-09T01:40:36.431903","MEAN_MOTION":"16.18857296","ECCENTRICITY":"0.00654270","INCLINATION":"51.7385","RA_OF_ASC_NODE":"68.7242","ARG_OF_PERICENTER":"1.2505","MEAN_ANOMALY":"358.8559","EPHEMERIS_TYPE":"0","CLASSIFICATION_TYPE":"U","NORAD_CAT_ID":"2198","ELEMENT_SET_NO":"999","REV_AT_EPOCH":"10","BSTAR":"0.00000000000000","MEAN_MOTION_DOT":"0.10428297","MEAN_MOTION_DDOT":"0.0094203000000","SEMIMAJOR_AXIS":"6600.797","PERIOD":"88.951","APOAPSIS":"265.849","PERIAPSIS":"179.475","OBJECT_TYPE":"DEBRIS","RCS_SIZE":null,"COUNTRY_CODE":null,"LAUNCH_DATE":null,"SITE":null,"DECAY_DATE":"1966-06-11","FILE":"33914","GP_ID":"8719817","TLE_LINE0":"0 SL-3 DEB","TLE_LINE1":"1 02198U 66050  C 66160.06986611  .10428297 +94203-2 +00000-0 0  9996","TLE_LINE2":"2 02198 051.7385 068.7242 0065427 001.2505 358.8559 16.18857296000104"},{"CCSDS_OMM_VERS":"2.0","COMMENT":"GENERATED VIA SPACE-TRACK.ORG API","CREATION_DATE":"2004-08-15T23:35:47","ORIGINATOR":"18 SPCS","OBJECT_NAME":"TITAN 3C TRANSTAGE DEB","OBJECT_ID":"1965-082FV","CENTER_NAME":"EARTH","REF_FRAME":"TEME","TIME_SYSTEM":"UTC","MEAN_ELEMENT_THEORY":"SGP4","EPOCH":"1966-06-10T16:10:35.537088","MEAN_MOTION":"15.88809397","ECCENTRICITY":"0.00237940","INCLINATION":"32.1605","RA_OF_ASC_NODE":"352.2284","ARG_OF_PERICENTER":"253.2217","MEAN_ANOMALY":"106.5171","EPHEMERIS_TYPE":"0","CLASSIFICATION_TYPE":"U","NORAD_CAT_ID":"1911","ELEMENT_SET_NO":"999","REV_AT_EPOCH":"3619","BSTAR":"0.00000000000000","MEAN_MOTION_DOT":"0.02956891","MEAN_MOTION_DDOT":"0.0179090000000","SEMIMAJOR_AXIS":"6683.761","PERIOD":"90.633","APOAPSIS":"321.529","PERIAPSIS":"289.722","OBJECT_TYPE":"DEBRIS","RCS_SIZE":null,"COUNTRY_CODE":null,"LAUNCH_DATE":null,"SITE":null,"DECAY_DATE":"1966-06-21","FILE":"33914","GP_ID":"8717913","TLE_LINE0":"0 TITAN 3C TRANSTAGE DEB","TLE_LINE1":"1 01911U 65082 FV 66161.67402242  .02956891 +17909-1 +00000-0 0  9997","TLE_LINE2":"2 01911 032.1605 352.2284 0023794 253.2217 106.5171 15.88809397036192"},{"CCSDS_OMM_VERS":"2.0","COMMENT":"GENERATED VIA SPACE-TRACK.ORG API","CREATION_DATE":"2004-08-15T23:35:47","ORIGINATOR":"18 SPCS","OBJECT_NAME":"SL-3 R\/B","OBJECT_ID":"1966-050B","CENTER_NAME":"EARTH","REF_FRAME":"TEME","TIME_SYSTEM":"UTC","MEAN_ELEMENT_THEORY":"SGP4","EPOCH":"1966-06-10T17:43:57.733823","MEAN_MOTION":"16.21618095","ECCENTRICITY":"0.00763470","INCLINATION":"51.7912","RA_OF_ASC_NODE":"59.6998","ARG_OF_PERICENTER":"19.4903","MEAN_ANOMALY":"340.8768","EPHEMERIS_TYPE":"0","CLASSIFICATION_TYPE":"U","NORAD_CAT_ID":"2197","ELEMENT_SET_NO":"999","REV_AT_EPOCH":"37","BSTAR":"0.00000000000000","MEAN_MOTION_DOT":"0.04918663","MEAN_MOTION_DDOT":"0.2585700000000","SEMIMAJOR_AXIS":"6593.303","PERIOD":"88.800","APOAPSIS":"265.506","PERIAPSIS":"164.830","OBJECT_TYPE":"ROCKET BODY","RCS_SIZE":null,"COUNTRY_CODE":null,"LAUNCH_DATE":null,"SITE":null,"DECAY_DATE":"1966-06-12","FILE":"33914","GP_ID":"8719816","TLE_LINE0":"0 SL-3 R\/B","TLE_LINE1":"1 02197U 66050  B 66161.73886266  .04918663 +25857-0 +00000-0 0  9996","TLE_LINE2":"2 02197 051.7912 059.6998 0076347 019.4903 340.8768 16.21618095000370"},{"CCSDS_OMM_VERS":"2.0","COMMENT":"GENERATED VIA SPACE-TRACK.ORG API","CREATION_DATE":"2004-08-15T23:35:47","ORIGINATOR":"18 SPCS","OBJECT_NAME":"COSMOS 120","OBJECT_ID":"1966-050A","CENTER_NAME":"EARTH","REF_FRAME":"TEME","TIME_SYSTEM":"UTC","MEAN_ELEMENT_THEORY":"SGP4","EPOCH":"1966-06-11T04:19:38.078111","MEAN_MOTION":"16.11320283","ECCENTRICITY":"0.00639150","INCLINATION":"51.7923","RA_OF_ASC_NODE":"57.3839","ARG_OF_PERICENTER":"35.7058","MEAN_ANOMALY":"324.7751","EPHEMERIS_TYPE":"0","CLASSIFICATION_TYPE":"U","NORAD_CAT_ID":"2196","ELEMENT_SET_NO":"999","REV_AT_EPOCH":"44","BSTAR":"0.00000000000000","MEAN_MOTION_DOT":"0.00144683","MEAN_MOTION_DDOT":"0.0000573580000","SEMIMAJOR_AXIS":"6621.365","PERIOD":"89.367","APOAPSIS":"285.550","PERIAPSIS":"200.909","OBJECT_TYPE":"PAYLOAD","RCS_SIZE":null,"COUNTRY_CODE":null,"LAUNCH_DATE":null,"SITE":null,"DECAY_DATE":"1966-06-16","FILE":"33914","GP_ID":"8719812","TLE_LINE0":"0 COSMOS 120","TLE_LINE1":"1 02196U 66050  A 66162.18030183  .00144683 +57358-4 +00000-0 0  9998","TLE_LINE2":"2 02196 051.7923 057.3839 0063915 035.7058 324.7751 16.11320283000448"},{"CCSDS_OMM_VERS":"2.0","COMMENT":"GENERATED VIA SPACE-TRACK.ORG API","CREATION_DATE":"2004-08-15T23:35:47","ORIGINATOR":"18 SPCS","OBJECT_NAME":"ATLAS D R\/B","OBJECT_ID":"1966-046B","CENTER_NAME":"EARTH","REF_FRAME":"TEME","TIME_SYSTEM":"UTC","MEAN_ELEMENT_THEORY":"SGP4","EPOCH":"1966-06-13T23:15:07.255007","MEAN_MOTION":"16.05545399","ECCENTRICITY":"0.00251520","INCLINATION":"28.7968","RA_OF_ASC_NODE":"223.9064","ARG_OF_PERICENTER":"135.2510","MEAN_ANOMALY":"224.9775","EPHEMERIS_TYPE":"0","CLASSIFICATION_TYPE":"U","NORAD_CAT_ID":"2188","ELEMENT_SET_NO":"999","REV_AT_EPOCH":"198","BSTAR":"0.00000000000000","MEAN_MOTION_DOT":"0.00654808","MEAN_MOTION_DDOT":"0.0010778000000","SEMIMAJOR_AXIS":"6637.232","PERIOD":"89.689","APOAPSIS":"275.791","PERIAPSIS":"242.403","OBJECT_TYPE":"ROCKET BODY","RCS_SIZE":null,"COUNTRY_CODE":null,"LAUNCH_DATE":null,"SITE":null,"DECAY_DATE":"1966-06-22","FILE":"33914","GP_ID":"8719793","TLE_LINE0":"0 ATLAS D R\/B","TLE_LINE1":"1 02188U 66046  B 66164.96883397  .00654808 +10778-2 +00000-0 0  9993","TLE_LINE2":"2 02188 028.7968 223.9064 0025152 135.2510 224.9775 16.05545399001980"}]